State,Pharmacy Name,Street Address 1 (physical store address),Street Address 2 ,City,Zip,Borough,County
,IVY HOME INFUSIONS LLC,,,ANCHORAGE AK 99508,,,Anchorage Municipality
,,,,,,,
,,,,,,,
,,,,,,,
,TRIAD RX INC,,,DAPHNE AL 36526,,,Baldwin County
,WALGREENS #01109-2,,,MUSCLE SHOALS AL 35661,,,Colbert County
,AMERICA'S BEST CARE PLUS,,,FORT PAYNE AL 35968,,,DeKalb County
,IHS PHARMACY,,,RAINSVILLE AL 35986,,,DeKalb County
,CORPORATE PHARMACY SERVICES INC,,,GADSDEN AL 35901,,,Etowah County
,NAPHCARE INC,,,BIRMINGHAM AL 35216,,,Jefferson County
,WELLNESS PHARMACY,,,BIRMINGHAM AL 35209,,,Jefferson County
,HPC SPECIALTY PHARMACY,,,MOBILE AL 36606,,,Mobile County
,PMOA INC,,,MOBILE AL 36609,,,Mobile County
,INVERNESS APOTHECARY TRINITY LLC,,,TRINITY AL 35673,,,Morgan County
,PREMIUM COMPOUNDING INC,,,DECATUR AL 35603,,,Morgan County
,OPTUM PHARMACY 705 LLC,,,BIRMINGHAM AL 35242,,,Shelby County
,,,,,,,
,,,,,,,
,,,,,,,
,ALLCARE SPECIALTY,,,LITTLE ROCK AR 72204,,,Pulaski County
,CSI PHARMACY,,,TEXARKANA AR 71854,,,Miller County
,US COMPOUNDING INC,,,CONWAY AR 72032,,,Faulkner County
,WHITE RIVER PHARMACY LLC,,,SPRINGDALE AR 72762,,,Washington County
,INFINITY COMPOUNDING SOLUTIONS LLC,,,BENTONVILLE AR 72712,,,Benton County
,,,,,,,
,,,,,,,
,,,,,,,
,CVS/SPECIALTY,,,CHANDLER AZ 85224,,,Maricopa County
,DIPLOMAT SPECIALITY PHARMACY,,,CHANDLER AZ 85226,,,Maricopa County
,WALGREENS,,,CHANDLER AZ 85286,,,Maricopa County
,EXPRESS VETERINARY PHARMACY LLC,,,GILBERT AZ 85233,,,Maricopa County
,CHEWY PHARMACY LLC,,,GOODYEAR AZ 85338,,,Maricopa County
,SMARTPRACTICE ALLERGEN BANK LLC,,,PHOENIX AZ 85008,,,Maricopa County
,ROMAN HEALTH PHARMACY LLC,,,PHOENIX AZ 85021,,,Maricopa County
,SUMMIT PHARMACY INC,,,PHOENIX AZ 85029,,,Maricopa County
,VASCO RX,,,PHOENIX AZ 85032,,,Maricopa County
,AMAZON PHARMACY #002,,,PHOENIX AZ 85034,,,Maricopa County
,CVS/CAREMARK,,,PHOENIX AZ 85040,,,Maricopa County
,HUMANA PHARMACY INC,,,PHOENIX AZ 85043,,,Maricopa County
,FOOTHILLS PROFESSIONAL PHARMACY LTD,,,PHOENIX AZ 85048,,,Maricopa County
,LUMICERA HEALTH SERVICES LLC,,,PHOENIX AZ 85054,,,Maricopa County
,AVELLA OF DEER VALLEY,,,PHOENIX AZ 85085,,,Maricopa County
,AVELLA OF DEER VALLEY INC #38,,,PHOENIX AZ 85085,,,Maricopa County
,ROADRUNNER PHARMACY,,,PHOENIX AZ 85085,,,Maricopa County
,WEDGEWOOD VILLAGE PHARMACY,,,SCOTTSDALE AZ 85251,,,Maricopa County
,CIVIC CENTER PHARMACY,,,SCOTTSDALE AZ 85251,,,Maricopa County
,TC SCRIPT LLC,,,SCOTTSDALE AZ 85255,,,Maricopa County
,GENRX PHARMACY,,,SCOTTSDALE AZ 85255,,,Maricopa County
,AVRIO PHARMACY,,,SCOTTSDALE AZ 85258,,,Maricopa County
,INTEGRITY RX SPECIALTY PHARMACY LLC,,,SCOTTSDALE AZ 85258,,,Maricopa County
,DIPLOMAT SPECIALTY INFUSION GROUP,,,SCOTTSDALE AZ 85258,,,Maricopa County
,VERTISIS CUSTOM PHARMACY,,,SCOTTSDALE AZ 85260,,,Maricopa County
,ACCREDO HEALTH GROUP INC,,,TEMPE AZ 85281,,,Maricopa County
,EXPRESS SCRIPTS,,,TEMPE AZ 85282,,,Maricopa County
,LLC PATIENT SERVICES INC,,,TEMPE AZ 85283,,,Maricopa County
,ALLIANCERX WALGREENS PRIME #03397,,,TEMPE AZ 85284,,,Maricopa County
,MEDIMPACT DIRECT LLC,,,TEMPE AZ 85284,,,Maricopa County
,EXPRESS SCRIPTS,,,TEMPE AZ 85284,,,Maricopa County
,WOMEN'S INTERNATIONAL PHARMACY,,,YOUNGTOWN AZ 85363,,,Maricopa County
,PET HEALTH PHARMACY,,,YOUNGTOWN AZ 85363,,,Maricopa County
,VECTRARX MAIL PHARMACY SERVICES LLC,,,ORO VALLEY AZ 85737,,,Pima County
,,,,,,,
,,,,,,,
,,,,,,,
,UNIVERSITY OF COLORADO HOSPITAL ATRIUM PHARMACY,,,AURORA CO 80045,,,Adams County
,US SPECIALTY CARE LLC,,,CENTENNIAL CO 80112,,,Arapahoe County
,WELLDYNERX LLC,,,CENTENNIAL CO 80112,,,Arapahoe County
,ACCREDO HEALTH GROUP INC,,,ENGLEWOOD CO 80112-5861,,,Arapahoe County
,PHARMACA INTEGRATIVE PHARMACY INC,,,GREENWOOD VILLAGE CO 80121,,,Arapahoe County
,CARDINAL HEALTH 414 LLC,,,DENVER CO 80238,,,Denver County
,US BIOSERVICES,,,DENVER CO 80216,,,Denver County
,CRX PHARMACY,,,HIGHLANDS RANCH CO 80129,,,Douglas County
,ITC COMPOUNDING AND NATURAL WELLNESS PHARMACY,,,CASTLE ROCK CO 80109,,,Douglas County
,COLLEGE PHARMACY,,,COLORADO SPRINGS CO 80918,,,El Paso County
,BELMAR PHARMACY,,,GOLDEN CO 80401,,,Jefferson County
,,,,,,,
,,,,,,,
,,,,,,,
,ACCREDO HEALTH GROUP INC,,,NEW CASTLE DE 19720,,,New Castle County
,BIOTEK REMEDYS,,,NEW CASTLE DE 19720,,,New Castle County
,,,,,,,
,,,,,,,
,,,,,,,
,AMEX PHARMACY,,,MELBOURNE FL 32901,,,Brevard County
,DANIA REXALL PART B SPECIALISTS,,,DANIA FL 33004,,,Broward County
,SKIP'S PHARMACY,,,DEERFIELD BEACH FL 33442,,,Broward County
,APTIVARX,,,FORT LAUDERDALE FL 33309,,,Broward County
,HALLANDALE PHARMACY,,,FORT LAUDERDALE FL 33312,,,Broward County
,POST HASTE PHARMACY,,,HOLLYWOOD FL 33021,,,Broward County
,PROCARE PHARMACY CARE LLC,,,MIRAMAR FL 33027,,,Broward County
,"DCRX INFUSION, PATIENT CARE AMERICA",,,POMPANO BEACH FL 33064,,,Broward County
,DIRECT PHARMACY SOURCE INC,,,SUNRISE FL 33351,,,Broward County
,SMART PHARMACY,,,JACKSONVILLE FL 32224,,,Duval County
,EVERWELL SPECIALITY PHARMACY,,,PENSACOLA FL 32504,,,Escambia County
,ABSOLUTE PHARMACY LLC,,,LUTZ FL 33549,,,Hillsborough County
,ANAZAOHEALTH,,,TAMPA FL 33634,,,Hillsborough County
,"EXACTUS PHARMACY SOLUTIONS, INC",,,TAMPA FL 33634,,,Hillsborough County
,PRAXIS RX PHARMACY,,,TAMPA FL 33634,,,Hillsborough County
,EXPRESS SCRIPTS,,,TEMPLE TERRACE FL 33637,,,Hillsborough County
,AON PHARMACY,,,FORT MYERS FL 33913,,,Lee County
,APOTHICARE360,,,FORT MYERS FL 33912,,,Lee County
,RX TO GO LLC,,,FORT MYERS FL 33916,,,Lee County
,WELLS PHARMACY NETWORK LLC,,,OCALA FL 34474,,,Marion County
,US MED LLC,,,MIAMI FL 33126,,,Miami-Dade County
,SMP PHARMACY SOLUTIONS #2,,,MIAMI FL 33155,,,Miami-Dade County
,AMAZON PHARMACY #003,,,MIAMI FL 33172,,,Miami-Dade County
,ALLIVET,,,MIAMI LAKES FL 33014,,,Miami-Dade County
,WALGREENS #1219-2,,,MIAMI LAKES FL 33016,,,Miami-Dade County
,CYSTIC FIBROSIS PHARMACY INC,,,ORLANDO FL 32803,,,Orange County
,ACS PHARMACY,,,ORLANDO FL 32809,,,Orange County
,AETNA SPECIALTY PHARMACY LLC,,,ORLANDO FL 32809,,,Orange County
,PUBLIX PHARMACY #3213,,,ORLANDO FL 32809,,,Orange County
,PUBLIX SPECIALTY PHARMACY #3212,,,ORLANDO FL 32809,,,Orange County
,ROSEMONT SPECIALTY PHARMACY,,,ORLANDO FL 32810,,,Orange County
,ALLIANCERX WALGREENS PRIME #16568,,,ORLANDO FL 32819,,,Orange County
,CVS CAREMARK,,,ORLANDO FL 32819,,,Orange County
,WALGREENS #02445,,,ORLANDO FL 32819,,,Orange County
,WALGREENS #1261-2,,,ORLANDO FL 32819,,,Orange County
,ACCREDO HEALTH GROUP,,,ORLANDO FL 32822,,,Orange County
,KROGER SPECIALTY PHARMACY FL 2,,,ORLANDO FL 32822,,,Orange County
,OLYMPIA PHARMACY,,,ORLANDO FL 32835,,,Orange County
,PERFORM SPECIALTY LLC,,,ORLANDO FL 32837,,,Orange County
,WAL-MART PHARMACY 10-5315,,,ORLANDO FL 32837,,,Orange County
,TAYLORS PHARMACY,,,WINTER PARK FL 32789,,,Orange County
,WELLS SPECIALTY PHARMACY,,,WINTER PARK FL 32792,,,Orange County
,MAILMYPRESCRIPTIONS.COM,,,BOCA RATON FL 33431,,,Palm Beach County
,TRUSTEDMEDRX LLC,,,BOCA RATON FL 33487,,,Palm Beach County
,1-800-PETMEDS,,,DELRAY BEACH FL 33445,,,Palm Beach County
,ZIP HEALTH INC,,,JUPITER FL 33458,,,Palm Beach County
,COASTLINE PHARMACY LLC,,,JUPITER FL 33477,,,Palm Beach County
,FRANAKO PHARMACY INC,,,LAKE WORTH FL 33460,,,Palm Beach County
,MINT PHARMACY AND SKIN CLINIC,,,NORTH PALM BEACH FL 33408,,,Palm Beach County
,DARJEN INC,,,PALM BEACH GARDENS FL 33410,,,Palm Beach County
,UNITED PHARMACY LLC,,,WEST PALM BEACH FL 33417,,,Palm Beach County
,CUSTOM SCRIPTS PHARMACY,,,WESLEY CHAPEL FL 33544,,,Pasco County
,SOUTH LAKE PHARMACY,,,ZEPHYRHILLS FL 33542,,,Pasco County
,CCS MEDICAL,,,CLEARWATER FL 33762,,,Pinellas County
,APS PHARMACY,,,PALM HARBOR FL 34684,,,Pinellas County
,PROMISE PHARMACY,,,PALM HARBOR FL 34684,,,Pinellas County
,RELIANT PHARMACY SERVICE,,,PINELLAS PARK FL 33782,,,Pinellas County
,CURANT HEALTH FLORIDA LLC,,,SAINT PETERSBURG FL 33716,,,Pinellas County
,FMC PHARMACY SERVICES - EAST,,,SAINT PETERSBURG FL 33716,,,Pinellas County
,PHARMALABS,,,SAINT PETERSBURG FL 33716,,,Pinellas County
,INFUSERVE AMERICA,,,SAINT PETERSBURG FL 33716,,,Pinellas County
,BENZER PHARMACY,,,AUBURNDALE FL 33823,,,Polk County
,EAGLE PHARMACY,,,LAKELAND FL 33810,,,Polk County
,WELLDYNERX - FL,,,LAKELAND FL 33810,,,Polk County
,US SPECIALTY CARE LLC,,,LAKELAND FL 33810,,,Polk County
,BIOPLUS SPECIALTY PHARMACY SERVICES LLC,,,ALTAMONTE SPRINGS FL 32701,,,Seminole County
,AVELLA OF ORLANDO INC,,,LAKE MARY FL 32746,,,Seminole County
,COVANCE SPECIALTY PHARMACY LLC,,,LAKE MARY FL 32746,,,Seminole County
,KROGER SPECIALTY PHARMACY FL,,,LAKE MARY FL 32746,,,Seminole County
,,,,,,,
,,,,,,,
,,,,,,,
,ADVANCED INFUSION CARE,,,VALDOSTA GA 31602,,,Lowndes County
,CTCA/RX,,,NEWNAN GA 30265,,,Coweta County
,CURANT HEALTH GEORGIA LLC,,,SMYRNA GA 30082,,,Cobb County
,ENCOMPASS RX,,,ATLANTA GA 30345,,,DeKalb County
,HST PHARMACY,,,GAINESVILLE GA 30507,,,Hall County
,INTOUCH PHARMACY LLC,,,DAWSONVILLE GA 30534,,,Dawson County
,PHARMACEUTICAL SPECIALTIES EXPRESS,,,BOGART GA 30622,,,Oconee County
,,,,,,,
,,,,,,,
,,,,,,,
,MEDICAL CENTER NORTHSHORE PHARMACY,,,KILAUEA HI 96754,,,Kauai County
,,,,,,,
,,,,,,,
,,,,,,,
,DIPLOMAT SPECIALTY INFUSION GROUP,,,URBANDALE IA 50322,,,Polk County
,REVIVAL ANIMAL HEALTH,,,ORANGE CITY IA 51041,,,Sioux County
,VET RX DIRECT,,,CORALVILLE IA 52241,,,Johnson County
,,,,,,,
,,,,,,,
,,,,,,,
,ANIMAL HEALTH INTERNATIONAL INC,,,TWIN FALLS ID 83301,,,Twin Falls County
,BI-MART PHARMACY #673,,,WEISER ID 83672,,,Washington County
,CARDINAL HEALTH 414 LLC,,,BOISE ID 83705,,,Ada County
,CORAM CVS/SPECIALTY INFUSION SERVICES INC,,,BOISE ID 83713,,,Ada County
,GENOA HEALTHCARE LLC,,,PAYETTE ID 83661,,,Payette County
,MOUNTAIN CARE PHARMACY,,,BOISE ID 83704,,,Ada County
,MEDICAP PHARMACY,,,PARMA ID 83660,,,Canyon County
,MWI ANIMAL RX PHARMACY,,,NAMPA ID 83687,,,Canyon County
,PHARMERICA,,,MERIDIAN ID 83642,,,Ada County
,ST LUKE'S REGIONAL MEDICAL CENTER OUTPATIENT PHARMACY,,,BOISE ID 83712,,,Ada County
,WESTERN STOCKMENS PHARMACY,,,CALDWELL ID 83605,,,Canyon County
,THE PRESCRIPTION PAD LLC,,,FRUITLAND ID 83619,,,Payette County
,,,,,,,
,,,,,,,
,,,,,,,
,PHARMASCRIPT INC,,,CHICAGO IL 60604,,,Cook County
,ORSINI PHARMACEUTICAL SERVICES LLC,,,ELK GROVE VILLAGE IL 60007,,,Cook County
,ONEPOINT PATIENT CARE LLC,,,MORTON GROVE IL 60053,,,Cook County
,DELIVERCARERX PHARMACY LLC,,,MOUNT PROSPECT IL 60056,,,Cook County
,CVS CAREMARK,,,MOUNT PROSPECT IL 60056,,,Cook County
,CVS CAREMARK,,,MT PROSPECT IL 60056,,,Cook County
,CVS/SPECIALTY,,,MT. PROSPECT IL 60056,,,Cook County
,AMERICAN SERVICE AND PRODUCT,,,ORLAND PARK IL 60467,,,Cook County
,CAREPOINT PHARMACY,,,SCHAUMBURG IL 60173,,,Cook County
,LOMBARD PHARMACY,,,LOMBARD IL 60148,,,DuPage County
,CAREPARTNERS PHARMACY LLC,,,LIBERTYVILLE IL 60048,,,Lake County
,FRESENIUS MEDICAL CARE NORTH AMERICA,,,LAKE BLUFF IL 60044,,,Lake County
,"MEDLINE PHARMACY, LLC",,,LIBERTYVILLE IL 60048,,,Lake County
,PHARMACY SOLUTIONS,,,NORTH CHICAGO IL 60064,,,Lake County
,RTS AMERICAS INC,,,DEERFIELD IL 60015,,,Lake County
,DIVVYDOSE,,,MOLINE IL 61265,,,Rock Island County
,,,,,,,
,,,,,,,
,,,,,,,
,ACCREDO HEALTH GROUP,,,INDIANAPOLIS IN 46241,,,Marion County
,CARDINAL HEALTH 414 LLC,,,INDIANAPOLIS IN 46268,,,Marion County
,CROSSWIND PHARMACY,,,INDIANAPOLIS IN 46203,,,Marion County
,CVS PHARMACY #11114,,,INDIANAPOLIS IN 46219,,,Marion County
,EXPRESS SCRIPTS,,,WHITESTOWN IN 46075,,,Boone County
,HOMEMED PHARMACY,,,INDIANAPOLIS IN 46278,,,Marion County
,KNIPPERX INC,,,CHARLESTOWN IN 47111,,,Clark County
,PHARMERICA,,,INDIANAPOLIS IN 46250,,,Marion County
,OPTUM PHARMACY 702 LLC,,,JEFFERSONVILLE IN 47130,,,Clark County
,SCRIPTS RX PHARMACY,,,CHICAGO IL 60657,,,Cook County
,SIMPLE MEDS,,,INDIANAPOLIS IN 46250,,,Marion County
,WESTMORELAND PHARMACY + COMPOUNDING,,,NEW ALBANY IN 47150,,,Floyd County
,MEIJER PHARMACY #463,,,FORT WAYNE IN 46808,,,Allen County
,,,,,,,
,,,,,,,
,,,,,,,
,,,,,,,
,ANIMAL RX PHARMACY,,,EDWARDSVILLE KS 66111,,,Wyandotte County
,ARJ INFUSION SERVICES INC,,,LENEXA KS 66214,,,Johnson County
,ARX PATIENT SOLUTIONS PHARMACY,,,OVERLAND PARK KS 66207,,,Johnson County
,BIOPARTNERS IN CARE INC,,,LENEXA KS 66215,,,Johnson County
,CUSTOM RX PHARMACY + WELLNESS CONCEPTS,,,WICHITA KS 67205,,,Sedgwick County
,CVS CAREMARK,,,LENEXA KS 66219,,,Johnson County
,"OPTUM INFUSION SERVICES 305, LLC",,,LENEXA KS 66219,,,Johnson County
,OPTUMRX,,,OVERLAND PARK KS 66211,,,Johnson County
,VALLEY VET PHARMACY,,,MARYSVILLE KS 66508,,,Marshall County
,PET'S CHOICE PHARMACY LLC,,,BELLEVILLE KS 66935,,,Republic County
,,,,,,,
,,,,,,,
,,,,,,,
,CHEWY PHARMACY KY LLC,,,LOUISVILLE KY 40299,,,Jefferson County
,CHEWY PHARMACY LLC,,,LOUISVILLE KY 40299,,,Jefferson County
,CHEWY PHARMACY LLC,,,LOUISVILLE KY 40219,,,Jefferson County
,DOC LANES VETERINARY PHARMACY LLC,,,LEXINGTON KY 40511,,,Fayette County
,HEALTHWAREHOUSE.COM INC,,,FLORENCE KY 41042,,,Boone County
,HDM PHARMACY LLC,,,LEXINGTON KY 40511,,,Fayette County
,MEDVANTX SPECIALTY PHARMACY,,,LOUISVILLE KY 40219,,,Jefferson County
,ONCO360,,,LOUISVILLE KY 40223,,,Jefferson County
,PHARMACORD,,,LOUISVILLE KY 40299,,,Jefferson County
,ROOD AND RIDDLE VETERINARY PHARMACY,,,LEXINGTON KY 40511,,,Fayette County
,RX CROSSROADS BY MCKESSON,,,LOUISVILLE KY 40219,,,Jefferson County
,TAILOR MADE COMPOUNDING,,,NICHOLASVILLE KY 40356,,,Jessamine County
,THERACOM,,,BROOKS KY 40109,,,Bullitt County
,WICKLIFFE PHARMACEUTICALS INC,,,LEXINGTON KY 40511,,,Fayette County
,BET PHARM LLC,,,LEXINGTON KY 40511,,,Fayette County
,,,,,,,
,,,,,,,
,AVITA DRUGS LLC,,,BATON ROUGE LA 70808,,,East Baton Rouge Parish
,HEALTHLOGIC PHARMACY,,,BATON ROUGE LA 70809,,,East Baton Rouge Parish
,CRX SPECIALTY SOLUTIONS,,,NATCHITOCHES LA 71457,,,Natchitoches Parish
,FAST ACCESS SPECIALTY THERAPEUTICS,,,KENNER LA 70062,,,Jefferson Parish
,FIRST CALL PHARMACY,,,KENNER LA 70062,,,Jefferson Parish
,ARCHWAY APOTHECARY DBA ARCHWAY FAMILY PHARMACY,,,COVINGTON LA 70433,,,St. Tammany Parish
,LHC GROUP PHARMACEUTICAL SERVICES LLC,,,LAFAYETTE LA 70508,,,Lafayette Parish
,PROFESSIONAL ARTS PHARMACY,,,LAFAYETTE LA 70506,,,Lafayette Parish
,,,,,,,
,,,,,,,
,,,,,,,
,BIOMATRIX SPECIALTY PHARMACY OF MARYLAND,,,COLUMBIA MD 21046,,,Howard County
,CAREMETX HEALTH LLC,,,GAITHERSBURG MD 20878,,,Montgomery County
,CORRECT RX PHARMACY SERVICES INC,,,HANOVER MD 21076,,,Anne Arundel County
,FACTOR ONE SOURCE PHARMACY LLC,,,CUMBERLAND MD 21502,,,Allegany County
,FISHER BIOSERVICES INC,,,ROCKVILLE MD 20850,,,Montgomery County
,,,,,,,
,,,,,,,
,,,,,,,
,COVETRUS MAINE,,,PORTLAND ME 04101,,,Cumberland County
,,,,,,,
,,,,,,,
,,,,,,,
,AMOP PHARMACY,,,WARREN MI 48089,,,Macomb County
,ALLIANCERX WALGREENS PRIME #15438,,,CANTON MI 48188,,,Wayne County
,BERKLEY PHARMACY,,,WARREN MI 48088,,,Macomb County
,DIPLOMAT SPECIALTY PHARMACY,,,FLINT MI 48507,,,Genesee County
,ENVOY HEALTH MANAGEMENT,,,FLINT MI 48507,,,Genesee County
,HOMESCRIPTS,,,TROY MI 48084,,,Oakland County
,NOVIXUS PHARMACY SERVICES,,,NOVI MI 48375,,,Oakland County
,MEIJER SPECIALTY PHARMACY,,,BELLEVILLE MI 48111,,,Wayne County
,OPTIMED SPECIALTY PHARMACY,,,KALAMAZOO MI 49009,,,Kalamazoo County
,MEDCART SPECIALTY PHARMACY,,,LIVONIA MI 48150,,,Wayne County
,PHARMACY SOLUTIONS,,,ANN ARBOR MI 48103,,,Washtenaw County
,HENRY FORD PHARMACY ADVANTAGE SOUTHFIELD,,,ROCHESTER MI 48307,,,Oakland County
,,,,,,,
,,,,,,,
,,,,,,,
,CORAM CVS/SPECIALTY INFUSION SERVICES,,,MENDOTA HEIGHTS MN 55120,,,Dakota County
,STERLING SPECIALTY PHARMACY,,,MENDOTA HEIGHTS MN 55120,,,Dakota County
,TRUAX PATIENT SERVICES,,,BEMIDJI MN 56601,,,Beltrami County
,LEEDSTONE,,,MELROSE MN 56352,,,Stearns County
,MAYO CLINIC PHARMACY,,,ROCHESTER MN 55902,,,Olmsted County
,FAIRVIEW SPECIALTY SERVICES PHARMACY,,,MINNEAPOLIS MN 55414,,,Hennepin County
,,,,,,,
,,,,,,,
,,,,,,,
,CHD PHARMACY,,,SAINT LOUIS MO 63134,,,St. Louis County
,DIPLOMAT SPECIALTY INFUSION GROUP,,,COLUMBIA MO 65203,,,Boone County
,EVERSANA LIFE SCIENCE SERVICES LLC,,,CHESTERFIELD MO 63005,,,St. Louis County
,EXPRESS SCRIPTS,,,SAINT LOUIS MO 63134,,,St. Louis County
,EXPRESS SCRIPTS SPECIALTY DISTRIBUTION SERVICES INC,,,SAINT LOUIS MO 63134,,,St. Louis County
,EXPRESS SCRIPTS,,,SAINT LOUIS MO 63134,,,St. Louis County
,"EXPRESS SCRIPTS SPECIALTY DISTRIBUTION SERVICES, INC",,,SAINT LOUIS MO 63134,,,St. Louis County
,FOUNDATION CARE LLC,,,EARTH CITY MO 63045,,,St. Louis County
,LEMONAID PHARMACY LLC,,,SAINT LOUIS MO 63101,,,St. Louis city
,MED 4 HOME,,,KANSAS CITY MO 64153,,,Platte County
,OPTIME CARE INC,,,EARTH CITY MO 63045,,,St. Louis County
,RX OUTREACH INC,,,MARYLAND HEIGHTS MO 63043,,,St. Louis County
,APEX SPECIALTY PHARMACY,,,RIVERSIDE MO 64150,,,Platte County
,STAR MEDICAL RX,,,KANSAS CITY MO 64117,,,Clay County
,SKIN SPECIALTY SOLUTIONS INC,,,FENTON MO 63026,,,St. Louis County
,HERITAGE BIOLOGICS,,,LEES SUMMIT MO 64086,,,Jackson County
,,,,,,,
,,,,,,,
,,,,,,,
,A1 PHARMACY SERVICES,,,SOUTHAVEN MS 38671,,,DeSoto County
,HIGHLAND SPECIALTY PHARMACY,,,HATTIESBURG MS 39402,,,Lamar County
,VITAL CARE RX,,,MERIDIAN MS 39301,,,Lauderdale County
,OPTUM PHARMACY 705 LLC,,,COLUMBUS MS 39705,,,Lowndes County
,ADVANCED INFUSION SOLUTIONS,,,RIDGELAND MS 39157,,,Madison County
,TRANSCRIPT PHARMACY,,,FLOWOOD MS 39232,,,Rankin County
,,,,,,,
,,,,,,,
,,,,,,,
,OSRX INC,,,MISSOULA MT 59801,,,Missoula County
,RIDGEWAY PHARMACY CLOSED DOOR,,,VICTOR MT 59875,,,Ravalli County
,MIRX PHARMACY,,,BILLINGS MT 59102,,,Yellowstone County
,,,,,,,
,,,,,,,
,,,,,,,
,GREER PHARMACY,,,LENOIR NC 28645,,,Caldwell County
,DRUGCO HEALTH,,,ROANOKE RAPIDS NC 27870,,,Halifax County
,ADHERERX INC,,,CARY NC 27511,,,Wake County
,BIOLOGICS BY MCKESSON,,,CARY NC 27513,,,Wake County
,BIOLOGICS BY MCKESSON,,,CARY NC 27513,,,Wake County
,US PHARMAMED LLC,,,RALEIGH NC 27609,,,Wake County
,MEDISUITE,,,CARY NC 27511,,,Wake County
,HEALTH CARE CENTER PHARMACY,,,CARY NC 27513,,,Wake County
,MARLEY DRUG INC,,,WINSTON SALEM NC 27127,,,Forsyth County
,NUFACTOR INC,,,KERNERSVILLE NC 27284,,,Forsyth County
,MYLAN HEALTH MANAGEMENT,,,GREENSBORO NC 27406,,,Guilford County
,,,,,,,
,,,,,,,
,,,,,,,
,WHITE DRUG #061,,,FARGO ND 58102,,,Cass County
,LIFESCRIPT PHARMACY PLLC,,,FARGO ND 58104,,,Cass County
,,,,,,,
,,,,,,,
,,,,,,,
,HEARTLAND VETERINARY PHARMACY,,,HASTINGS NE 68901,,,Adams County
,SAV-RX PHARMACY,,,FREMONT NE 68025,,,Dodge County
,ARJ INFUSION SERVICES INC,,,OMAHA NE 68144,,,Douglas County
,CHI HEALTH SPECIALTY PHARMACY,,,OMAHA NE 68124,,,Douglas County
,COVETRUS NE,,,OMAHA NE 68137,,,Douglas County
,PROMESA HEALTH PHARMACY,,,OMAHA NE 68154,,,Douglas County
,AMBER PHARMACY,,,OMAHA NE 68138,,,Sarpy County
,CSR COMPANY INC,,,LA VISTA NE 68128,,,Sarpy County
,,,,,,,
,,,,,,,
,,,,,,,
,PILLPACK BY AMAZON PHARMACY,,,MANCHESTER NH 03101,,,Hillsborough County
,,,,,,,
,,,,,,,
,,,,,,,
,CUREXA,,,EGG HARBOR TOWNSHIP NJ 08234,,,Atlantic County
,DUNN MEADOW PHARMACY,,,FORT LEE NJ 07024,,,Bergen County
,MILLERS OF WYCKOFF,,,WYCKOFF NJ 07481,,,Bergen County
,PERSONAL RX,,,EAST RUTHERFORD NJ 07073,,,Bergen County
,EXPRESS SCRIPTS,,,BURLINGTON NJ 08016,,,Burlington County
,CAREFIRST SPECIALTY PHARMACY,,,CINNAMINSON NJ 08077,,,Burlington County
,CAREKINESIS INC,,,MOORESTOWN NJ 08057,,,Burlington County
,STOKES PHARMACY,,,MOUNT LAUREL NJ 08054,,,Burlington County
,CVS/SPECIALTY,,,FAIRFIELD NJ 07004,,,Essex County
,WEDGEWOOD VILLAGE PHARMACY,,,SWEDESBORO NJ 08085,,,Gloucester County
,METRO DRUGS HOBOKEN LLC,,,HOBOKEN NJ 07030,,,Hudson County
,MEDICAL HOME PHARMACY,,,TRENTON NJ 08638,,,Mercer County
,APOGEE BIO-PHARM LLC,,,EDISON NJ 08837,,,Middlesex County
,DIRECT SUCCESS PHARMACY DEPT,,,FARMINGDALE NJ 07727,,,Monmouth County
,INCLINE HEALTH LLC,,,OCEANPORT NJ 07757,,,Monmouth County
,PARKWAY PHARMACY LP,,,HOWELL NJ 07731,,,Monmouth County
,IMPRIMISRX,,,LEDGEWOOD NJ 07852,,,Morris County
,SCHRAFT'S 2.0,,,CEDAR KNOLLS NJ 07927,,,Morris County
,BASIC HOME INFUSION INC,,,WAYNE NJ 07470,,,Passaic County
,BIOLOGICTX LLC,,,TOTOWA NJ 07512,,,Passaic County
,MANDELLS CLINICAL PHARMACY,,,SOMERSET NJ 08873,,,Somerset County
,,,,,,,
,,,,,,,
,,,,,,,
,EXPRESS SCRIPTS,,,ALBUQUERQUE NM 87107,,,Bernalillo County
,,,,,,,
,ANAZAOHEALTH CORPORATION,,,LAS VEGAS NV 89113,,,Clark County
,BENZER PHARMACY,,,LAS VEGAS NV 89109,,,Clark County
,CVS/SPECIALTY PHARMACY,,,LAS VEGAS NV 89119,,,Clark County
,PARTELL SPECIALTY PHARMACY,,,LAS VEGAS NV 89119,,,Clark County
,LEVEL CARE PHARMACY I LLC,,,LAS VEGAS NV 89119,,,Clark County
,NATIONAL SPECIALTY PHARMACY LLC,,,HENDERSON NV 89052,,,Clark County
,OPTUM PHARMACY 703 LLC,,,LAS VEGAS NV 89113,,,Clark County
,META PHARMACY SERVICES,,,LAS VEGAS NV 89113,,,Clark County
,,,,,,,
,,,,,,,
,,,,,,,
,CEDRA PHARMACY INC,,,BRONX NY 10455,,,Bronx County
,PET RESCUE RX INC,,,AKRON NY 14001,,,Erie County
,RELIANCE RX,,,AMHERST NY 14221,,,Erie County
,WEGMANS FOOD MARKETS INC,,,CHEEKTOWAGA NY 14227,,,Erie County
,COTTRILLS PHARMACY INC,,,ORCHARD PARK NY 14127,,,Erie County
,CAREMED PHARMACEUTICAL SERVICES,,,LAKE SUCCESS NY 11042,,,Nassau County
,PET CARE RX,,,LYNBROOK NY 11563,,,Nassau County
,ORPHAN PHARMACY SERVICES LLC,,,SYOSSET NY 11791,,,Nassau County
,THE ALLIANCE PHARMACY,,,WESTBURY NY 11590,,,Nassau County
,MIXLAB,,,NEW YORK NY 10018,,,New York County
,ROMAN HEALTH PHARMACY LLC,,,NEW YORK NY 10003,,,New York County
,FOCUSED CARE PHARMACY INC,,,SYRACUSE NY 13206,,,Onondaga County
,NOBLE HEALTH SERVICES INC,,,SYRACUSE NY 13206,,,Onondaga County
,PROPEL PHARMACY,,,CICERO NY 13039,,,Onondaga County
,ROUTE 300 PHARMACY,,,NEWBURGH NY 12550,,,Orange County
,MASTERPHARM LLC,,,SOUTH RICHMOND HILL NY 11419,,,Queens County
,EXPRESS SCRIPTS,,,TROY NY 12180,,,Rensselaer County
,OCEAN BREEZE HEALTHCARE,,,STATEN ISLAND NY 10305,,,Richmond County
,PROACT PHARMACY SERVICES,,,GOUVERNEUR NY 13642,,,St. Lawrence County
,,,,,,,
,,,,,,,
,,,,,,,
,AMERICAS PHARMACY SOURCE,,,AKRON OH 44314,,,Summit County
,EDGEPARK MEDICAL SUPPLIES & INDEPENDENCE MEDICAL,,,TWINSBURG OH 44087,,,Summit County
,ENVISIONPHARMACIES,,,NORTH CANTON OH 44720,,,Stark County
,EXACT CARE PHARMACY LLC,,,VALLEY VIEW OH 44125,,,Cuyahoga County
,EXPRESS SCRIPTS,,,FAIRFIELD OH 45014,,,Butler County
,EXPRESS SCRIPTS,,,DUBLIN OH 43017,,,Franklin County
,EZ SCRIPTS PHARMACY,,,WESTLAKE OH 44145,,,Cuyahoga County
,GEM EDWARDS PHARMACY,,,HUDSON OH 44236,,,Summit County
,KROGER COLUMBUS CENTRAL FILL,,,COLUMBUS OH 43217,,,Franklin County
,HUMANA PHARMACY INC,,,WEST CHESTER OH 45069,,,Butler County
,LEE SILSBY COMPOUNDING PHARMACY,,,BEACHWOOD OH 44122,,,Cuyahoga County
,REMEDI SENIORCARE OF OHIO,,,TROY OH 45373,,,Miami County
,THE KROGER CO. CENTRAL PRESCRIPTION PROCESSING,,,BLUE ASH OH 45242,,,Hamilton County
,SOLEO HEALTH INC,,,DUBLIN OH 43016,,,Franklin County
,BIOSCRIP PHARMACY SERVICES,,,DUBLIN OH 43017,,,Franklin County
,DIPLOMAT SPECIALTY INFUSION GROUP,,,CINCINNATI OH 45249,,,Hamilton County
,CHD PHARMACY,,,FAIRFIELD OH 45014,,,Butler County
,,,,,,,
,,,,,,,
,,,,,,,
,PHARMACORR LLC,,,OKLAHOMA CITY OK 73149,,,Oklahoma County
,OPTIONONE LLC,,,OKLAHOMA CITY OK 73134,,,Oklahoma County
,OPTUMRX,,,OKLAHOMA CITY OK 73104,,,Oklahoma County
,,,,,,,
,,,,,,,
,,,,,,,
,FAIRLEY'S PHARMACY,,,PORTLAND OR 97213,,,Multnomah County
,,,,,,,
,,,,,,,
,,,,,,,
,PANTHERX SPECIALTY PHARMACY,,,CORAOPOLIS PA 15108,,,Allegheny County
,CVS/SPECIALTY,,,MONROEVILLE PA 15146,,,Allegheny County
,RAREMED SOLUTIONS,,,PITTSBURGH PA 15205,,,Allegheny County
,VALEDA RX,,,PITTSBURGH PA 15234,,,Allegheny County
,COORDINATED CARE NETWORK PHARMACY,,,PITTSBURGH PA 15235,,,Allegheny County
,CVS CAREMARK #1638,,,PITTSBURGH PA 15238,,,Allegheny County
,ALLIANCERX WALGREENS PRIME #16287,,,PITTSBURGH PA 15275,,,Allegheny County
,PANTHERX SPECIALTY PHARMACY,,,PITTSBURGH PA 15275,,,Allegheny County
,ACCREDO HEALTH GROUP,,,WARRENDALE PA 15086,,,Allegheny County
,PHARMBLUE LLC,,,WARRENDALE PA 15086,,,Allegheny County
,RX BLUE STAR SOLUTIONS LLC,,,WARRENDALE PA 15086,,,Allegheny County
,VALUE SPECIALTY PHARMACY,,,DUNCANSVILLE PA 16635,,,Blair County
,TRANSITION PHARMACY,,,TREVOSE PA 19053,,,Bucks County
,CONTRACT PHARMACY SERVICES,,,WARRINGTON PA 18976,,,Bucks County
,BENECARD CENTRAL FILL,,,MECHANICSBURG PA 17055,,,Cumberland County
,PENTEC HEALTH,,,BOOTHWYN PA 19061,,,Delaware County
,ELWYN SPECIALTY CARE,,,GARNET VALLEY PA 19060,,,Delaware County
,HERITAGE THERAPEUTICS LLC,,,HOLMES PA 19043,,,Delaware County
,ENCLARA PHARMACIA INC,,,SHARON HILL PA 19079,,,Delaware County
,HOMETECH ADVANCED THERAPIES INC,,,SHARON HILL PA 19079,,,Delaware County
,PHARMACY INNOVATIONS,,,ERIE PA 16505,,,Erie County
,DIAMOND PHARMACY SERVICES,,,INDIANA PA 15701,,,Indiana County
,CVS CAREMARK,,,WILKES BARRE PA 18706,,,Luzerne County
,EMPIRE PHARMACY SERVICES,,,CONSHOHOCKEN PA 19428,,,Montgomery County
,ADVANCED RX,,,FORT WASHINGTON PA 19034,,,Montgomery County
,CIGNA HOME DELIVERY PHARMACY,,,HORSHAM PA 19044,,,Montgomery County
,QUAKER COMMUNITY PHARMACY LLC,,,EASTON PA 18045,,,Northampton County
,CHEMISTRY RX,,,PHILADELPHIA PA 19107,,,Philadelphia County
,ENCLARA PHARMACIA INC,,,PHILADELPHIA PA 19102,,,Philadelphia County
,CATALENT PHARMACY SERVICES (PHL),,,PHILADELPHIA PA 19114,,,Philadelphia County
,PROCURE PHARMACEUTICAL SERVICES,,,BURGETTSTOWN PA 15021,,,Washington County
,EXPRESS SCRIPTS,,,NORTH HUNTINGDON PA 15642,,,Westmoreland County
,,,,,,,
,,,,,,,
,,,,,,,
,BLUE SKY SPECIALTY PHARMACY,,,MOUNT PLEASANT SC 29464,,,Charleston County
,ADVANCED PHARMACY LLC,,,GREENVILLE SC 29615,,,Greenville County
,MEDSCRIPTS MEDICAL PHARMACY,,,GREENVILLE SC 29607,,,Greenville County
,MANIFEST PHARMACY,,,GREER SC 29650,,,Greenville County
,LONG'S DRUGS OF LEXINGTON SOUTH CAROLINA INC,,,LEXINGTON SC 29072,,,Lexington County
,,,,,,,
,,,,,,,
,,,,,,,
,CIGNA HOME DELIVERY PHARMACY,,,SIOUX FALLS SD 57104,,,Minnehaha County
,MEDVANTX PHARMACY SERVICES,,,SIOUX FALLS SD 57104,,,Minnehaha County
,,,,,,,
,,,,,,,
,,,,,,,
,PETMART PHARMACY LLC,,,MARYVILLE TN 37804,,,Blount County
,ACCREDO HEALTH GROUP,,,NASHVILLE TN 37214,,,Davidson County
,ADVANCED RX PHARMACY 060,,,NASHVILLE TN 37217,,,Davidson County
,"RARX II, LLC",,,NASHVILLE TN 37203,,,Davidson County
,RARX LLC,,,NASHVILLE TN 37203,,,Davidson County
,USRC PHARMACY LLC,,,NASHVILLE TN 37203,,,Davidson County
,VANDERBILT INTEGRATED PHARMACY,,,NASHVILLE TN 37211,,,Davidson County
,FERTILITY PHARMACY OF AMERICA,,,NASHVILLE TN 37203,,,Davidson County
,MMS SOLUTIONS,,,NASHVILLE TN 37228,,,Davidson County
,WELLS PHARMACY NETWORK LLC,,,DYERSBURG TN 38024,,,Dyer County
,VET APPROVED RX,,,OAKLAND TN 38060,,,Fayette County
,SOLUTIONS PHARMACY,,,COLLEGEDALE TN 37315,,,Hamilton County
,THE WELLNESS CENTER PHARMACY INC,,,CHATTANOOGA TN 37421,,,Hamilton County
,PARAGON INFUSION,,,KNOXVILLE TN 37902,,,Knox County
,TWELVESTONE MEDICAL INC,,,MURFREESBORO TN 37129,,,Rutherford County
,BIOMATRIX SPECIALTY PHARMACY TN,,,BARTLETT TN 38133,,,Shelby County
,RESTORE RX INC,,,BRUNSWICK TN 38014,,,Shelby County
,ENCLARA PHARMACIA INC,,,MEMPHIS TN 38133,,,Shelby County
,ACCREDO HEALTH GROUP,,,MEMPHIS TN 38134,,,Shelby County
,ANOVORX GROUP LLC,,,MEMPHIS TN 38134,,,Shelby County
,ANOVORX GROUP LLC,,,MEMPHIS TN 38134,,,Shelby County
,HEMOPHILIA PREFERRED CARE OF MEMPHIS,,,MEMPHIS TN 38134,,,Shelby County
,ANDERSON COMPOUNDING PHARMACY,,,BRISTOL TN 37620,,,Sullivan County
,DIABETES CORPORATION OF AMERICA PHARMACY,,,FRANKLIN TN 37064,,,Williamson County
,FARMVET.COM,,,FRANKLIN TN 37069,,,Williamson County
,FRESENIUS MEDICAL CARE RX LLC,,,FRANKLIN TN 37067,,,Williamson County
,CLINICAL SOLUTIONS LLC,,,FRANKLIN TN 37067,,,Williamson County
,,,,,,,
,,,,,,,
,,,,,,,
,RIVER MEDICAL PHARMACY LLC,,,SAN ANTONIO TX 78240,,,Bexar County
,CVS CAREMARK,,,SAN ANTONIO TX 78238,,,Bexar County
,OPTUM PHARMACY 704 INC,,,SAN ANTONIO TX 78249,,,Bexar County
,WAL-MART PHARMACY 10-2625,,,CARROLLTON TX 75006,,,Dallas County
,US BIOSERVICES,,,CARROLLTON TX 75010,,,Dallas County
,RITE CARE PHARMACY IV,,,DALLAS TX 75228,,,Dallas County
,ALLIANCERX WALGREENS PRIME #04582-2,,,DALLAS TX 75235,,,Dallas County
,"AFA PHARMACY, LLC",,,DALLAS TX 75243,,,Dallas County
,PARAGON HEALTHCARE SPECIALTY,,,DALLAS TX 75248,,,Dallas County
,ADVANCED INFUSION SOLUTIONS,,,DALLAS TX 75287,,,Dallas County
,RXCROSSROADS BY MCKESSON,,,IRVING TX 75063,,,Dallas County
,Y MEDICAL ASSOCIATES INC,,,IRVING TX 75063,,,Dallas County
,CARIE BOYD'S PRESCRIPTION SHOP,,,IRVING TX 75063,,,Dallas County
,FARMAKEIO,,,RICHARDSON TX 75081,,,Dallas County
,KROGER SPECIALTY INFUSION TX,,,RICHARDSON TX 75081,,,Dallas County
,SENDERRA RX PARTNERS LLC,,,RICHARDSON TX 75081,,,Dallas County
,DENTON PRESCRIPTION SHOP,,,DENTON TX 76201,,,Denton County
,LONG PRAIRIE PHARMACY,,,FLOWER MOUND TX 75028,,,Denton County
,EXACT CARE PHARMACY,,,LEWISVILLE TX 75067,,,Denton County
,SONEXUS HEALTH PHARMACY SERVICES LLC,,,LEWISVILLE TX 75067,,,Denton County
,GRAND RX,,,RICHMOND TX 77406,,,Fort Bend County
,RICHMOND PHARMACY,,,RICHMOND TX 77469,,,Fort Bend County
,HEALIX INFUSION THERAPY LLC,,,SUGAR LAND TX 77478,,,Fort Bend County
,AXTELL RITE VALUE PHARMACY,,,WHITESBORO TX 76273,,,Grayson County
,BCP VETERINARY PHARMACY,,,HOUSTON TX 77003,,,Harris County
,TOTAL VEIN PHARMACY LLC,,,HOUSTON TX 77008,,,Harris County
,PARAGON INFUSION CARE - HOUSTON,,,HOUSTON TX 77024,,,Harris County
,VILLAGE COMPOUNDING PHARMACY,,,HOUSTON TX 77024,,,Harris County
,VALUSTAR PHARMACY,,,HOUSTON TX 77030,,,Harris County
,EMPOWER PHARMACY,,,HOUSTON TX 77041,,,Harris County
,SPECIALTY THERAPEUTIC CARE,,,HOUSTON TX 77043,,,Harris County
,ACARIAHEALTH PHARMACY #11 INC,,,HOUSTON TX 77043,,,Harris County
,STEEPLECHASE EXPRESS RX,,,HOUSTON TX 77065,,,Harris County
,COVETRUS TX,,,HOUSTON TX 77086,,,Harris County
,PHYSICIANS PREFERENCE PHARMACY INTERNATIONAL LLC,,,KATY TX 77450,,,Harris County
,PRESCRIPTION MART,,,BEAUMONT TX 77706,,,Jefferson County
,CVS/SPECIALTY #48604,,,FLOWER MOUND TX 78028,,,Kerr County
,IV SOLUTIONS OF LUBBOCK,,,LUBBOCK TX 79407,,,Lubbock County
,MXP PHARMACY,,,AMARILLO TX 79101,,,Potter County
,MAXOR PHARMACIES,,,AMARILLO TX 79101,,,Potter County
,SIMPLE RX PHARMACY,,,ARLINGTON TX 76011,,,Tarrant County
,PHARMACY SOLUTIONS,,,ARLINGTON TX 76013,,,Tarrant County
,RECEPT PHARMACY #1,,,FORT WORTH TX 76104,,,Tarrant County
,RX.COM COMMUNITY PHARMACY,,,FORT WORTH TX 76108,,,Tarrant County
,"AMERICAN OUTCOMES MANAGEMENT, L.P.",,,FORT WORTH TX 76109,,,Tarrant County
,TPC PHARMACY,,,FORT WORTH TX 76155,,,Tarrant County
,MEDCURE PHARMACY,,,KELLER TX 76244,,,Tarrant County
,AMAZON PHARMACY #001,,,AUSTIN TX 78745,,,Travis County
,PRESCRIPTION DISPENSING LABORATORIES INC,,,CEDAR PARK TX 78613,,,Williamson County
,ALLIANCERX WALGREENS PRIME #16280,,,FRISCO TX 75033,,,
,ALLIANCERX WALGREENS PRIME #15443,,,FRISCO TX 75033,,,
,,,,,,,
,,,,,,,
,,,,,,,
,BEAUTY EMPOWER RX,,,FAIRFAX VA 22030,,,Fairfax County
,,,,,,,
,,,,,,,
,,,,,,,
,RX PHARMACY LTC,,,RICHLAND WA 99352,,,Benton County
,PREFERRED RX PHARMACY,,,VANCOUVER WA 98662,,,Clark County
,PROPACPAYLESS PHARMACY,,,VANCOUVER WA 98683,,,Clark County
,WRX PHARMACY,,,VANCOUVER WA 98686,,,Clark County
,PACIFIC NW SPECIALTY PHARMACY LLC,,,VANCOUVER WA 98663,,,Clark County
,ONEPOINT PATIENT CARE LLC,,,VANCOUVER WA 98662,,,Clark County
,GENEVA WOODS PHARMACY,,,VANCOUVER WA 98662,,,Clark County
,GENOA HEALTHCARE LLC,,,VANCOUVER WA 98661,,,Clark County
,COLUMBIA COMPOUNDING,,,VANCOUVER WA 98682,,,Clark County
,COMPASS ONCOLOGY PHARMACY,,,VANCOUVER WA 98683,,,Clark County
,APOTHECARY AT SALMON CREEK,,,VANCOUVER WA 98686,,,Clark County
,KAISER PERMANENTE LONGVIEW KELSO ONCOLOGY PHARMACY,,,LONGVIEW WA 98632,,,Cowlitz County
,GENOA HEALTHCARE LLC,,,LONGVIEW WA 98632,,,Cowlitz County
,MOSES LAKE PROFESSIONAL PHARMACY,,,MOSES LAKE WA 98837,,,Grant County
,MENS PHARMACY,,,MONTESANO WA 98563,,,Grays Harbor County
,CUSTOM PRESCRIPTIONS,,,BELLEVUE WA 98004,,,King County
,CORDANT PHARMACY SOLUTIONS,,,BELLEVUE WA 98005,,,King County
,CLARK'S PHARMACY,,,BELLEVUE WA 98008,,,King County
,KEY COMPOUNDING PHARMACY,,,FEDERAL WAY WA 98003,,,King County
,OSTROMS DRUG AND GIFT,,,KENMORE WA 98028,,,King County
,ACCREDO HEALTH GROUP,,,KENT WA 98032,,,King County
,PETNET SOLUTIONS INC,,,KENT WA 98032,,,King County
,OVERLAKE PHARMACY LLC,,,REDMOND WA 98052,,,King County
,CORAM CVS/SPECIALTY INFUSION SERVICES,,,REDMOND WA 98052,,,King County
,READY MEDS PHARMACY,,,RENTON WA 98057,,,King County
,KAISER PERMANENTE WA MAIL ORDER PHARMACY,,,RENTON WA 98057,,,King County
,DYNAMIC RX LABS LLC,,,RENTON WA 98057,,,King County
,VIRGINIA MASON GEORGETOWN PHARMACY,,,SEATTLE WA 98108,,,King County
,CARDINAL HEALTH 414 LLC,,,SEATTLE WA 98108,,,King County
,"COMMUNITY, A WALGREENS PHARMACY #16403",,,SEATTLE WA 98122,,,King County
,THE FALLS COMPOUNDING PHARMACY,,,SNOQUALMIE WA 98065,,,King County
,OPTION CARE,,,TUKWILA WA 98168,,,King County
,PARAMOUNT PHARMACY LLC,,,TUKWILA WA 98188,,,King County
,OPTUM PHARMACY #701 LLC,,,WOODINVILLE WA 98072,,,King County
,CASCADE SPECIALTY PHARMACY,,,POULSBO WA 98370,,,Kitsap County
,ILWACO PHARMACY,,,ILWACO WA 98624,,,Pacific County
,PENINSULA COMPOUNDING,,,LONG BEACH WA 98631,,,Pacific County
,LONG BEACH PHARMACY,,,LONG BEACH WA 98631,,,Pacific County
,OCEAN PARK PHARMACY,,,OCEAN PARK WA 98640,,,Pacific County
,FRANCISCAN PHARMACY ST ANTHONY,,,GIG HARBOR WA 98332,,,Pierce County
,COSTCO PHARMACY #581,,,EVERETT WA 98204,,,Snohomish County
,COSTCO PHARMACY #583,,,EVERETT WA 98204,,,Snohomish County
,RIVERPOINT PHARMACY,,,SPOKANE WA 99205,,,Spokane County
,PETNET SOLUTIONS INC,,,SPOKANE WA 99224,,,Spokane County
,PROVIDENCE INFUSION AND PHARMACY SERVICES,,,SPOKANE VALLEY WA 99206,,,Spokane County
,OPTION CARE,,,SPOKANE VALLEY WA 99206,,,Spokane County
,CORAM CVS/SPECIALTY INFUSION SERVICES,,,SPOKANE VALLEY WA 99212,,,Spokane County
,FAMILY MEDICAL CENTER PHARMACY,,,WALLA WALLA WA 99362,,,Walla Walla County
,ACCESS CENTRAL PHARMACY,,,YAKIMA WA 98901,,,Yakima County
,GENOA HEALTHCARE LLC,,,YAKIMA WA 98902,,,Yakima County
,,,,,,,
,,,,,,,
,,,,,,,
,JAT PHARMACY LLC,,,DE FOREST WI 53532,,,Dane County
,WOMENS INTERNATIONAL PHARMACY INC,,,MADISON WI 53718,,,Dane County
,LUMICERA HEALTH SERVICES LLC,,,MADISON WI 53717,,,Dane County
,ALLERGYCHOICES PHARMACY,,,ONALASKA WI 54650,,,La Crosse County
,THE PRESCRIPTION CENTER,,,LA CROSSE WI 54601,,,La Crosse County
,SERVE YOU RX,,,MILWAUKEE WI 53226,,,Milwaukee County
,EMBRACE PHARMACY,,,APPLETON WI 54914,,,Outagamie County
,,,,,,,
,,,,,,,
,,,,,,,
,ZOOPHARM,,,LARAMIE WY 82070,,,Albany County
,,,,,,,
,,,,,,,
,,,,,,,
,MEDQUEST PHARMACY,,,NORTH SALT LAKE UT 84054,,,Davis County
,A & W PHARMACY,,,DUCHESNE UT 84021,,,Duchesne County
,INTERMOUNTAIN HOME DELIVERY PHARMACY,,,MIDVALE UT 84047,,,Salt Lake County
,MEDS IN MOTION LLC,,,SALT LAKE CITY UT 84106,,,Salt Lake County
,ACCREDO HEALTH GROUP INC,,,SALT LAKE CITY UT 84115,,,Salt Lake County
,BYRAM HEALTHCARE CENTERS INC,,,SALT LAKE CITY UT 84115,,,Salt Lake County
,DEPOT DRUG,,,SALT LAKE CITY UT 84116,,,Salt Lake County
,MAGELLAN RX PHARMACY LLC,,,SALT LAKE CITY UT 84119,,,Salt Lake County
,HRX PHARMACY LLC,,,SALT LAKE CITY UT 84124,,,Salt Lake County
,BELLA BRANDS LLC,,,SANDY UT 84070,,,Salt Lake County
,MEDS FOR VETS,,,SANDY UT 84070,,,Salt Lake County
,ACUPHARM LLC,,,TAYLORSVILLE UT 84123,,,Salt Lake County
,INTERMOUNTAIN SPECIALTY PHARMACY,,,TAYLORSVILLE UT 84123,,,Salt Lake County
,RED ROCK PHARMACY STE 101,,,SPRINGVILLE UT 84663,,,Utah County
,FUSION SPECIALTY PHARMACY,,,SANTA CLARA UT 84765,,,Washington County
,,,,,,,
,,,,,,,
,,,,,,,
,,,,,,,
,,,,,,,
,,,,,,,
,,,,,,,
,,,,,,,
,,,,,,,
,,,,,,,
,,,,,,,
,,,,,,,
,,,,,,,
,,,,,,,
,,,,,,,
,,,,,,,
,,,,,,,
,,,,,,,
,,,,,,,
,,,,,,,
,,,,,,,
,,,,,,,
,,,,,,,
,,,,,,,
,,,,,,,
,,,,,,,
,,,,,,,
,,,,,,,
,,,,,,,
,,,,,,,
,,,,,,,
,,,,,,,
,,,,,,,
,,,,,,,
,,,,,,,
,,,,,,,
,,,,,,,
,,,,,,,
,,,,,,,
,,,,,,,
,,,,,,,
,,,,,,,
,,,,,,,
,,,,,,,
,,,,,,,
,,,,,,,
,,,,,,,
,,,,,,,
,,,,,,,
,,,,,,,
,,,,,,,
,,,,,,,
,,,,,,,
,,,,,,,
,,,,,,,
,,,,,,,
,,,,,,,
,,,,,,,
,,,,,,,
,,,,,,,
,,,,,,,
,,,,,,,
,,,,,,,
,,,,,,,
,,,,,,,
,,,,,,,
,,,,,,,
,,,,,,,
,,,,,,,
,,,,,,,
,,,,,,,
,,,,,,,
,,,,,,,
,,,,,,,
,,,,,,,
,,,,,,,
,,,,,,,
,,,,,,,
,,,,,,,
,,,,,,,
,,,,,,,
,,,,,,,
,,,,,,,
,,,,,,,
,,,,,,,
,,,,,,,
,,,,,,,
,,,,,,,
,,,,,,,
,,,,,,,
,,,,,,,
,,,,,,,
,,,,,,,
,,,,,,,
,,,,,,,
,,,,,,,
,,,,,,,
,,,,,,,
,,,,,,,
,,,,,,,
,,,,,,,
,,,,,,,
,,,,,,,
,,,,,,,
,,,,,,,
,,,,,,,
,,,,,,,
,,,,,,,
,,,,,,,
,,,,,,,
,,,,,,,
,,,,,,,
,,,,,,,
,,,,,,,
,,,,,,,
,,,,,,,
,,,,,,,
,,,,,,,
,,,,,,,
,,,,,,,
,,,,,,,
,,,,,,,
,,,,,,,
,,,,,,,
,,,,,,,
,,,,,,,
,,,,,,,
,,,,,,,
,,,,,,,
,,,,,,,
,,,,,,,
,,,,,,,
,,,,,,,
,,,,,,,
,,,,,,,
,,,,,,,
,,,,,,,
,,,,,,,
,,,,,,,
,,,,,,,
,,,,,,,
,,,,,,,
,,,,,,,
,,,,,,,
,,,,,,,
,,,,,,,
,,,,,,,
,,,,,,,
,,,,,,,
,,,,,,,
,,,,,,,
,,,,,,,
,,,,,,,
,,,,,,,
,,,,,,,
,,,,,,,
,,,,,,,
,,,,,,,
,,,,,,,
,,,,,,,
,,,,,,,
,,,,,,,
,,,,,,,
,,,,,,,
,,,,,,,
,,,,,,,
,,,,,,,
,,,,,,,
,,,,,,,
,,,,,,,
,,,,,,,
,,,,,,,
,,,,,,,
,,,,,,,
,,,,,,,
,,,,,,,
,,,,,,,
,,,,,,,
,,,,,,,
,,,,,,,
,,,,,,,
,,,,,,,
,,,,,,,
,,,,,,,
,,,,,,,
,,,,,,,
,,,,,,,
,,,,,,,
,,,,,,,
,,,,,,,
,,,,,,,
,,,,,,,
,,,,,,,
,,,,,,,
,,,,,,,
,,,,,,,
,,,,,,,
,,,,,,,
,,,,,,,
,,,,,,,
,,,,,,,
,,,,,,,
,,,,,,,
,,,,,,,
,,,,,,,
,,,,,,,
,,,,,,,
,,,,,,,
,,,,,,,
,,,,,,,
,,,,,,,
,,,,,,,
,,,,,,,
,,,,,,,
,,,,,,,
,,,,,,,
,,,,,,,
,,,,,,,
,,,,,,,
,,,,,,,
,,,,,,,
,,,,,,,
,,,,,,,
,,,,,,,
,,,,,,,
,,,,,,,
,,,,,,,
,,,,,,,
,,,,,,,
,,,,,,,
,,,,,,,
,,,,,,,
,,,,,,,
,,,,,,,
,,,,,,,
,,,,,,,
,,,,,,,
,,,,,,,
,,,,,,,
,,,,,,,
,,,,,,,
,,,,,,,
,,,,,,,
,,,,,,,
,,,,,,,
,,,,,,,
,,,,,,,
,,,,,,,
,,,,,,,
,,,,,,,
,,,,,,,
,,,,,,,
,,,,,,,
,,,,,,,
,,,,,,,
,,,,,,,
,,,,,,,
,,,,,,,
,,,,,,,
,,,,,,,
,,,,,,,
,,,,,,,
,,,,,,,
,,,,,,,
,,,,,,,
,,,,,,,
,,,,,,,
,,,,,,,
,,,,,,,
,,,,,,,
,,,,,,,
,,,,,,,
,,,,,,,
,,,,,,,
,,,,,,,
,,,,,,,
,,,,,,,
,,,,,,,
,,,,,,,
,,,,,,,
,,,,,,,
,,,,,,,
,,,,,,,
,,,,,,,
,,,,,,,
,,,,,,,
,,,,,,,
,,,,,,,
,,,,,,,
,,,,,,,
,,,,,,,
,,,,,,,
,,,,,,,
,,,,,,,
,,,,,,,
,,,,,,,
,,,,,,,
,,,,,,,
,,,,,,,
,,,,,,,
,,,,,,,
,,,,,,,
,,,,,,,
,,,,,,,
,,,,,,,
,,,,,,,
,,,,,,,
,,,,,,,
,,,,,,,
,,,,,,,
,,,,,,,
,,,,,,,
,,,,,,,
,,,,,,,
,,,,,,,
,,,,,,,
,,,,,,,
,,,,,,,
,,,,,,,
,,,,,,,
,,,,,,,
,,,,,,,
,,,,,,,
,,,,,,,
,,,,,,,
,,,,,,,
,,,,,,,
,,,,,,,
,,,,,,,
,,,,,,,
,,,,,,,
